{"type":"FeatureCollection","features":[{"type":"Feature","properties":{"name":"Manilva","ine":"29068","centroid":[-5.26029,36.35]},"geometry":{"type":"Polygon","coordinates":[[[-5.22117,36.37352],[-5.22695,36.37414],[-5.22995,36.37517],[-5.24426,36.3838],[-5.24766,36.38405],[-5.25,36.38559],[-5.25265,36.38627],[-5.25318,36.38782],[-5.25557,36.38727],[-5.25663,36.38852],[-5.25866,36.38959],[-5.26154,36.38682],[-5.26465,36.38255],[-5.26757,36.38252],[-5.26873,36.38176],[-5.27071,36.38356],[-5.27558,36.38316],[-5.27607,36.37636],[-5.27806,36.37437],[-5.28011,36.37083],[-5.28957,36.36507],[-5.29598,36.35794],[-5.29815,36.35145],[-5.30148,36.34771],[-5.30409,36.34169],[-5.30639,36.33965],[-5.30628,36.33803],[-5.30552,36.33736],[-5.30852,36.33736],[-5.31083,36.33508],[-5.31228,36.33465],[-5.31331,36.33355],[-5.31557,36.32873],[-5.32008,36.32507],[-5.29131,36.33679],[-5.28548,36.33793],[-5.28179,36.33762],[-5.27939,36.33673],[-5.27783,36.33712],[-5.27586,36.33594],[-5.2755,36.33281],[-5.27075,36.32898],[-5.26999,36.32646],[-5.26785,36.32418],[-5.2595,36.32236],[-5.2539,36.31505],[-5.25237,36.31127],[-5.25125,36.31035],[-5.24905,36.31078],[-5.24801,36.31043],[-5.24707,36.31091],[-5.24686,36.3121],[-5.24628,36.31233],[-5.24643,36.31362],[-5.24441,36.31855],[-5.24226,36.3218],[-5.23721,36.33514],[-5.23257,36.34977],[-5.23186,36.35116],[-5.23098,36.35107],[-5.23157,36.35198],[-5.23075,36.35362],[-5.22981,36.3543],[-5.22926,36.35409],[-5.22845,36.35509],[-5.22878,36.35471],[-5.23152,36.35565],[-5.23096,36.35673],[-5.22801,36.35572],[-5.22762,36.35514],[-5.22857,36.35358],[-5.22786,36.35407],[-5.2274,36.35621],[-5.22814,36.35596],[-5.22852,36.35707],[-5.22117,36.37352]]]}},{"type":"Feature","properties":{"name":"Marbella","ine":"29069","centroid":[-4.8786,36.5052]},"geometry":{"type":"Polygon","coordinates":[[[-5.00494,36.46001],[-4.99921,36.46434],[-4.99604,36.46581],[-4.97792,36.47754],[-4.97604,36.47824],[-4.97182,36.47832],[-4.96892,36.48078],[-4.96754,36.48133],[-4.96697,36.48077],[-4.9672,36.48144],[-4.96654,36.48189],[-4.96541,36.48192],[-4.9653,36.4812],[-4.96425,36.48159],[-4.96499,36.48146],[-4.96536,36.48202],[-4.96469,36.48292],[-4.9641,36.48237],[-4.96434,36.48293],[-4.96314,36.48301],[-4.96275,36.48249],[-4.96318,36.48205],[-4.96174,36.48266],[-4.96256,36.48307],[-4.96184,36.48385],[-4.95985,36.4835],[-4.96002,36.48436],[-4.95923,36.485],[-4.95803,36.48509],[-4.95784,36.48394],[-4.95708,36.4842],[-4.95747,36.48415],[-4.95752,36.48488],[-4.95652,36.48523],[-4.95571,36.48475],[-4.95599,36.48439],[-4.95295,36.48428],[-4.9544,36.48596],[-4.95012,36.4887],[-4.94922,36.48807],[-4.94933,36.48753],[-4.9524,36.48372],[-4.955,36.48308],[-4.95257,36.48323],[-4.94782,36.48869],[-4.94861,36.4887],[-4.94843,36.49003],[-4.94508,36.49253],[-4.94504,36.4932],[-4.94161,36.49611],[-4.93516,36.49974],[-4.92976,36.50013],[-4.92662,36.4997],[-4.92262,36.50091],[-4.92168,36.50182],[-4.91203,36.50558],[-4.90157,36.50617],[-4.89572,36.50713],[-4.8931,36.50649],[-4.89135,36.50683],[-4.89013,36.50565],[-4.88972,36.50568],[-4.88979,36.50633],[-4.8881,36.50624],[-4.8885,36.50527],[-4.89122,36.50526],[-4.89164,36.50483],[-4.88771,36.50478],[-4.88808,36.50523],[-4.88745,36.50601],[-4.88193,36.50688],[-4.88065,36.50658],[-4.88063,36.50723],[-4.87944,36.50759],[-4.87732,36.50736],[-4.87732,36.50664],[-4.8767,36.50725],[-4.87576,36.50675],[-4.87579,36.50775],[-4.87477,36.50775],[-4.87456,36.50685],[-4.87456,36.50793],[-4.87337,36.50793],[-4.87335,36.50737],[-4.87262,36.50737],[-4.8727,36.50674],[-4.87461,36.50579],[-4.87634,36.50578],[-4.87647,36.5062],[-4.87712,36.50555],[-4.87402,36.50553],[-4.87241,36.5066],[-4.86556,36.50744],[-4.85437,36.50649],[-4.84577,36.50436],[-4.84246,36.50275],[-4.81324,36.49832],[-4.77577,36.48955],[-4.7567,36.48568],[-4.74511,36.48483],[-4.74329,36.4839],[-4.741,36.48408],[-4.73989,36.48322],[-4.74008,36.48517],[-4.74088,36.48499],[-4.74104,36.4854],[-4.74037,36.48595],[-4.73913,36.48334],[-4.74058,36.48266],[-4.73974,36.48274],[-4.73898,36.48316],[-4.73901,36.48477],[-4.73204,36.48646],[-4.73743,36.49292],[-4.73587,36.49624],[-4.73651,36.49748],[-4.73757,36.49808],[-4.73649,36.50002],[-4.73393,36.50196],[-4.73451,36.50417],[-4.73644,36.5054],[-4.73625,36.50716],[-4.73095,36.51353],[-4.73057,36.51568],[-4.73238,36.51873],[-4.7354,36.52124],[-4.73746,36.52117],[-4.74055,36.52221],[-4.74237,36.52331],[-4.7429,36.52473],[-4.74386,36.52525],[-4.74538,36.525],[-4.74753,36.52606],[-4.74941,36.52794],[-4.74965,36.52889],[-4.75249,36.52873],[-4.75872,36.53146],[-4.7618,36.53074],[-4.76558,36.53103],[-4.76755,36.53393],[-4.7719,36.53494],[-4.77364,36.53762],[-4.77696,36.53751],[-4.77884,36.53892],[-4.78274,36.53918],[-4.78561,36.5402],[-4.78709,36.54003],[-4.79142,36.54305],[-4.79565,36.54192],[-4.79649,36.54451],[-4.80077,36.54515],[-4.80261,36.54679],[-4.80653,36.54586],[-4.80791,36.54498],[-4.80939,36.54153],[-4.82277,36.53955],[-4.84492,36.53092],[-4.85205,36.53004],[-4.86132,36.53214],[-4.86599,36.53193],[-4.86834,36.53455],[-4.8724,36.53769],[-4.87884,36.54008],[-4.88558,36.54621],[-4.88854,36.5481],[-4.89317,36.54939],[-4.89953,36.55025],[-4.91445,36.54801],[-4.92218,36.55413],[-4.92241,36.55494],[-4.92296,36.55387],[-4.92476,36.55295],[-4.92528,36.55101],[-4.9405,36.54236],[-4.94566,36.54046],[-4.95323,36.53962],[-4.95933,36.53748],[-4.9706,36.53707],[-4.97922,36.53045],[-4.98682,36.5214],[-4.98714,36.51582],[-4.9894,36.50959],[-4.99263,36.50885],[-4.99637,36.50597],[-5.01268,36.49756],[-5.01467,36.49313],[-5.01308,36.49069],[-5.01345,36.48584],[-5.00939,36.47918],[-5.00884,36.47151],[-5.00804,36.47028],[-5.00917,36.46648],[-5.00895,36.46466],[-5.00845,36.46393],[-5.00581,36.46303],[-5.00494,36.46001]]]}},{"type":"Feature","properties":{"name":"Casares","ine":"29041","centroid":[-5.27764,36.43679]},"geometry":{"type":"Polygon","coordinates":[[[-5.22117,36.37352],[-5.21696,36.37928],[-5.21433,36.37938],[-5.21257,36.38026],[-5.21117,36.37978],[-5.20918,36.38298],[-5.20628,36.38613],[-5.20861,36.39473],[-5.2124,36.39943],[-5.21473,36.40376],[-5.21691,36.40954],[-5.21753,36.42047],[-5.21965,36.42678],[-5.21967,36.42986],[-5.21076,36.45376],[-5.21076,36.45902],[-5.20919,36.46288],[-5.20977,36.46409],[-5.2091,36.46653],[-5.20947,36.46845],[-5.20774,36.47483],[-5.20533,36.47964],[-5.20536,36.48072],[-5.20827,36.4843],[-5.20858,36.48549],[-5.21025,36.48667],[-5.21044,36.48864],[-5.21272,36.49313],[-5.2154,36.4946],[-5.22031,36.49623],[-5.22214,36.49953],[-5.22623,36.50242],[-5.22802,36.5075],[-5.22887,36.50858],[-5.23133,36.5103],[-5.23303,36.51353],[-5.236,36.5155],[-5.24089,36.5162],[-5.24242,36.51795],[-5.25242,36.51408],[-5.25488,36.51545],[-5.2635,36.51595],[-5.26618,36.51467],[-5.26503,36.51662],[-5.26746,36.51844],[-5.26805,36.5204],[-5.27109,36.52042],[-5.27153,36.51995],[-5.27121,36.51793],[-5.27159,36.51718],[-5.27268,36.51765],[-5.27363,36.51697],[-5.27419,36.51734],[-5.2756,36.51701],[-5.27701,36.51807],[-5.27746,36.51953],[-5.2786,36.51958],[-5.27886,36.5188],[-5.27786,36.51695],[-5.27773,36.51518],[-5.27574,36.51466],[-5.27845,36.51367],[-5.27869,36.51301],[-5.27698,36.51129],[-5.27568,36.51144],[-5.27543,36.51081],[-5.27806,36.51031],[-5.27679,36.50718],[-5.28129,36.50845],[-5.28144,36.50562],[-5.28334,36.50283],[-5.285,36.50152],[-5.286,36.50178],[-5.28813,36.50095],[-5.28955,36.49444],[-5.29207,36.4883],[-5.29241,36.48597],[-5.29397,36.48371],[-5.29836,36.47931],[-5.30358,36.47593],[-5.30541,36.4752],[-5.30997,36.47495],[-5.31062,36.4739],[-5.3147,36.47101],[-5.31662,36.46659],[-5.31896,36.46323],[-5.3218,36.46235],[-5.32439,36.45893],[-5.32691,36.45866],[-5.33573,36.45275],[-5.3445,36.44532],[-5.34792,36.44098],[-5.35255,36.43842],[-5.35545,36.4338],[-5.35805,36.43226],[-5.35686,36.42946],[-5.35633,36.42639],[-5.35728,36.42384],[-5.35341,36.42137],[-5.34716,36.41865],[-5.34569,36.41466],[-5.34411,36.41229],[-5.34397,36.4098],[-5.34,36.40393],[-5.33821,36.3978],[-5.33497,36.39488],[-5.33524,36.39002],[-5.33653,36.38344],[-5.33403,36.37884],[-5.33376,36.37623],[-5.33544,36.3719],[-5.33489,36.37001],[-5.33121,36.36604],[-5.33077,36.36445],[-5.32983,36.36397],[-5.32625,36.35804],[-5.3235,36.35019],[-5.32131,36.3465],[-5.31516,36.34334],[-5.31551,36.34085],[-5.32147,36.33337],[-5.323,36.33217],[-5.32062,36.32803],[-5.32008,36.32507],[-5.31557,36.32873],[-5.31331,36.33355],[-5.31228,36.33465],[-5.31083,36.33508],[-5.30852,36.33736],[-5.30552,36.33736],[-5.30628,36.33803],[-5.30639,36.33965],[-5.30409,36.34169],[-5.30148,36.34771],[-5.29815,36.35145],[-5.29598,36.35794],[-5.28957,36.36507],[-5.28011,36.37083],[-5.27806,36.37437],[-5.27607,36.37636],[-5.27558,36.38316],[-5.27071,36.38356],[-5.26873,36.38176],[-5.26757,36.38252],[-5.26465,36.38255],[-5.26154,36.38682],[-5.25866,36.38959],[-5.25663,36.38852],[-5.25557,36.38727],[-5.25318,36.38782],[-5.25265,36.38627],[-5.25,36.38559],[-5.24766,36.38405],[-5.24426,36.3838],[-5.22995,36.37517],[-5.22695,36.37414],[-5.22117,36.37352]]]}},{"type":"Feature","properties":{"name":"Benahav\u00eds","ine":"29023","centroid":[-5.04496,36.56569]},"geometry":{"type":"Polygon","coordinates":[[[-5.01467,36.49313],[-5.02001,36.49148],[-5.02931,36.48315],[-5.04111,36.47437],[-5.04792,36.47163],[-5.04873,36.47083],[-5.06142,36.46919],[-5.06581,36.47102],[-5.07485,36.47287],[-5.07815,36.48075],[-5.08762,36.49157],[-5.09966,36.50017],[-5.10566,36.50525],[-5.106,36.5068],[-5.10861,36.50987],[-5.10941,36.51302],[-5.11241,36.51442],[-5.11513,36.51721],[-5.11609,36.51915],[-5.11838,36.52116],[-5.1221,36.52378],[-5.12857,36.52455],[-5.13343,36.52638],[-5.13451,36.52715],[-5.13428,36.52817],[-5.13482,36.52882],[-5.14009,36.52999],[-5.1369,36.53451],[-5.12973,36.53734],[-5.1265,36.54013],[-5.12069,36.54337],[-5.10804,36.55674],[-5.10627,36.55921],[-5.1062,36.57114],[-5.10398,36.5721],[-5.09965,36.57226],[-5.0965,36.57356],[-5.09375,36.57487],[-5.0866,36.58025],[-5.07944,36.58796],[-5.08041,36.59236],[-5.07762,36.5943],[-5.07514,36.59817],[-5.06943,36.60111],[-5.06039,36.60235],[-5.06017,36.60532],[-5.06093,36.6076],[-5.06201,36.6088],[-5.05964,36.61551],[-5.05789,36.61786],[-5.057,36.62414],[-5.05523,36.62814],[-5.05569,36.63041],[-5.05494,36.6321],[-5.05308,36.63307],[-5.05109,36.63568],[-5.04988,36.63622],[-5.04562,36.64171],[-5.04352,36.64236],[-5.04157,36.64139],[-5.03735,36.637],[-5.03623,36.6346],[-5.02857,36.63121],[-5.02381,36.62973],[-5.02423,36.62756],[-5.02279,36.62494],[-5.02342,36.61751],[-5.02464,36.61549],[-5.02367,36.61314],[-5.02382,36.61092],[-5.023,36.61059],[-5.02282,36.60962],[-5.02366,36.60855],[-5.02156,36.60826],[-5.01829,36.60464],[-5.01806,36.60373],[-5.01658,36.60384],[-5.01313,36.60217],[-5.01198,36.59967],[-5.00977,36.59947],[-5.00837,36.59853],[-5.00827,36.59781],[-5.00629,36.59588],[-5.00419,36.59468],[-5.00361,36.59287],[-5.0042,36.59246],[-5.00349,36.59127],[-5.00411,36.58945],[-5.00356,36.58794],[-5.00232,36.58704],[-5.00194,36.58583],[-5.00252,36.5848],[-5.00125,36.58413],[-5.00132,36.58276],[-5.00048,36.58041],[-4.99839,36.57817],[-4.99831,36.5748],[-4.98456,36.56028],[-4.98593,36.55857],[-4.98444,36.55408],[-4.98134,36.55215],[-4.98012,36.54641],[-4.98112,36.54351],[-4.97949,36.5422],[-4.97665,36.54157],[-4.97477,36.54053],[-4.97397,36.53944],[-4.97391,36.53798],[-4.9706,36.53707],[-4.97922,36.53045],[-4.98682,36.5214],[-4.98714,36.51582],[-4.9894,36.50959],[-4.99263,36.50885],[-4.99637,36.50597],[-5.01268,36.49756],[-5.01467,36.49313]]]}},{"type":"Feature","properties":{"name":"Benalm\u00e1dena","ine":"29025","centroid":[-4.55013,36.59486]},"geometry":{"type":"Polygon","coordinates":[[[-4.5898,36.57101],[-4.58491,36.57372],[-4.57786,36.57453],[-4.57656,36.57568],[-4.57454,36.57621],[-4.57404,36.57586],[-4.57353,36.57653],[-4.57285,36.57623],[-4.56978,36.57744],[-4.56785,36.57702],[-4.56428,36.57787],[-4.56295,36.57758],[-4.56359,36.57777],[-4.56333,36.57861],[-4.5628,36.57837],[-4.5619,36.57897],[-4.56152,36.57838],[-4.56126,36.57923],[-4.5582,36.58046],[-4.55446,36.57975],[-4.54853,36.58087],[-4.54454,36.57929],[-4.54377,36.57951],[-4.54266,36.57893],[-4.54018,36.57931],[-4.53883,36.57852],[-4.53975,36.57997],[-4.53815,36.58092],[-4.53549,36.58117],[-4.53344,36.58205],[-4.53391,36.58336],[-4.53219,36.58581],[-4.52967,36.58828],[-4.52771,36.58873],[-4.52744,36.58958],[-4.52584,36.59087],[-4.5214,36.59196],[-4.52073,36.59365],[-4.51668,36.5953],[-4.51513,36.59519],[-4.51459,36.59421],[-4.5141,36.59433],[-4.51464,36.59459],[-4.51437,36.59496],[-4.51238,36.59374],[-4.51212,36.5946],[-4.51254,36.59423],[-4.51342,36.59475],[-4.51265,36.59559],[-4.5112,36.59504],[-4.5129,36.59623],[-4.51376,36.59529],[-4.51456,36.59567],[-4.51503,36.5965],[-4.51401,36.59769],[-4.51199,36.59756],[-4.51267,36.59649],[-4.5107,36.59554],[-4.51187,36.59645],[-4.5112,36.59719],[-4.50909,36.59694],[-4.50888,36.5966],[-4.51217,36.593],[-4.51382,36.59278],[-4.51235,36.59257],[-4.50765,36.59762],[-4.50818,36.59738],[-4.5098,36.59829],[-4.5095,36.59938],[-4.51004,36.59964],[-4.52103,36.6032],[-4.52217,36.60433],[-4.52631,36.60496],[-4.52727,36.60636],[-4.52929,36.60723],[-4.53457,36.607],[-4.53615,36.61091],[-4.53852,36.61238],[-4.54003,36.61199],[-4.54156,36.61235],[-4.54297,36.6145],[-4.54483,36.6159],[-4.54507,36.61749],[-4.54725,36.61868],[-4.54729,36.62013],[-4.54873,36.62019],[-4.54946,36.62104],[-4.55126,36.62066],[-4.55381,36.62269],[-4.55761,36.62107],[-4.56152,36.62096],[-4.56113,36.61904],[-4.56349,36.61843],[-4.5682,36.61797],[-4.57024,36.61831],[-4.57611,36.61749],[-4.58247,36.61795],[-4.5848,36.61748],[-4.5878,36.61488],[-4.59135,36.61435],[-4.59704,36.61183],[-4.59504,36.60903],[-4.59533,36.60712],[-4.59677,36.6054],[-4.59684,36.6046],[-4.59487,36.60295],[-4.59419,36.60109],[-4.59297,36.60041],[-4.59217,36.59782],[-4.59403,36.59571],[-4.59376,36.59385],[-4.59425,36.59262],[-4.59548,36.59081],[-4.59656,36.59021],[-4.59557,36.58757],[-4.59398,36.58712],[-4.59579,36.58597],[-4.59693,36.58361],[-4.59441,36.57802],[-4.59506,36.57583],[-4.59459,36.57469],[-4.59227,36.57392],[-4.59165,36.57237],[-4.5898,36.57101]]]}},{"type":"Feature","properties":{"name":"Mijas","ine":"29070","centroid":[-4.67686,36.5647]},"geometry":{"type":"Polygon","coordinates":[[[-4.73204,36.48646],[-4.72975,36.48685],[-4.71988,36.48656],[-4.71527,36.4878],[-4.71174,36.48736],[-4.70452,36.49043],[-4.69956,36.48953],[-4.69773,36.49027],[-4.69474,36.49016],[-4.69349,36.49123],[-4.6914,36.4916],[-4.68913,36.49483],[-4.68524,36.49823],[-4.67639,36.50346],[-4.66928,36.504],[-4.66201,36.50683],[-4.65668,36.50657],[-4.65397,36.50551],[-4.64708,36.50735],[-4.64415,36.50638],[-4.63912,36.50673],[-4.63716,36.50806],[-4.63601,36.51009],[-4.63528,36.51042],[-4.63493,36.51206],[-4.63379,36.51285],[-4.63403,36.51326],[-4.63305,36.51453],[-4.63152,36.51556],[-4.62937,36.51902],[-4.63662,36.52581],[-4.63612,36.52812],[-4.63658,36.52867],[-4.6298,36.5369],[-4.6305,36.53961],[-4.6304,36.54221],[-4.63241,36.54391],[-4.63127,36.54604],[-4.63146,36.54797],[-4.62836,36.5523],[-4.62721,36.55868],[-4.62312,36.5598],[-4.62383,36.56098],[-4.62115,36.56243],[-4.62194,36.56316],[-4.62135,36.56505],[-4.62192,36.56659],[-4.61841,36.56924],[-4.61734,36.57261],[-4.61426,36.57569],[-4.61272,36.57824],[-4.60975,36.58047],[-4.61009,36.58157],[-4.60724,36.58174],[-4.60786,36.58252],[-4.60813,36.58539],[-4.60518,36.58631],[-4.6035,36.58816],[-4.60371,36.58965],[-4.60306,36.58917],[-4.60301,36.58788],[-4.59961,36.58731],[-4.59557,36.58757],[-4.59656,36.59021],[-4.59548,36.59081],[-4.59425,36.59262],[-4.59376,36.59385],[-4.59403,36.59571],[-4.59217,36.59782],[-4.59297,36.60041],[-4.59419,36.60109],[-4.59487,36.60295],[-4.59684,36.6046],[-4.59677,36.6054],[-4.59533,36.60712],[-4.59504,36.60903],[-4.59704,36.61183],[-4.59695,36.61442],[-4.59879,36.6149],[-4.60153,36.61408],[-4.60276,36.61433],[-4.60497,36.61671],[-4.60961,36.61839],[-4.61229,36.62023],[-4.61203,36.62117],[-4.62199,36.6253],[-4.62915,36.62042],[-4.63394,36.62291],[-4.6392,36.62376],[-4.6392,36.62104],[-4.64021,36.6196],[-4.64101,36.6159],[-4.64405,36.61234],[-4.64915,36.61136],[-4.65118,36.61289],[-4.65475,36.61262],[-4.65689,36.61343],[-4.65761,36.61292],[-4.65884,36.61309],[-4.66334,36.61597],[-4.67162,36.61525],[-4.67366,36.61621],[-4.6764,36.61633],[-4.68771,36.61018],[-4.6901,36.60961],[-4.69215,36.60585],[-4.69403,36.60546],[-4.69743,36.60588],[-4.70088,36.60405],[-4.70128,36.60216],[-4.70599,36.60135],[-4.70875,36.59982],[-4.7105,36.60081],[-4.71458,36.59968],[-4.71499,36.59905],[-4.71553,36.59948],[-4.71647,36.59921],[-4.71649,36.59995],[-4.71693,36.6],[-4.71938,36.59913],[-4.72022,36.59762],[-4.72117,36.59766],[-4.72195,36.59869],[-4.72709,36.59686],[-4.7306,36.59635],[-4.73391,36.59693],[-4.73611,36.59522],[-4.7415,36.59489],[-4.74631,36.59347],[-4.75184,36.59486],[-4.75736,36.5945],[-4.76021,36.59307],[-4.76377,36.59011],[-4.76635,36.58967],[-4.77162,36.59119],[-4.77389,36.58889],[-4.77379,36.58344],[-4.77565,36.58113],[-4.77565,36.57963],[-4.77682,36.57644],[-4.77613,36.57285],[-4.77298,36.5672],[-4.77399,36.56519],[-4.77386,36.56359],[-4.77121,36.56197],[-4.76722,36.55662],[-4.76274,36.55596],[-4.76197,36.5545],[-4.75771,36.55242],[-4.75396,36.54746],[-4.75212,36.54646],[-4.7507,36.54659],[-4.74929,36.54399],[-4.74853,36.53864],[-4.74641,36.53675],[-4.74511,36.53422],[-4.74334,36.5331],[-4.74375,36.53185],[-4.73795,36.52787],[-4.7354,36.52124],[-4.73238,36.51873],[-4.73057,36.51568],[-4.73095,36.51353],[-4.73625,36.50716],[-4.73644,36.5054],[-4.73451,36.50417],[-4.73393,36.50196],[-4.73649,36.50002],[-4.73757,36.49808],[-4.73651,36.49748],[-4.73587,36.49624],[-4.73743,36.49292],[-4.73204,36.48646]]]}},{"type":"Feature","properties":{"name":"Estepona","ine":"29051","centroid":[-5.1322,36.46065]},"geometry":{"type":"Polygon","coordinates":[[[-5.20628,36.38613],[-5.20198,36.39192],[-5.20012,36.39315],[-5.19843,36.3933],[-5.19571,36.39703],[-5.19385,36.39777],[-5.18811,36.40531],[-5.18445,36.40899],[-5.18165,36.4114],[-5.17616,36.41479],[-5.17276,36.41615],[-5.17144,36.41616],[-5.17039,36.41522],[-5.16803,36.41627],[-5.16548,36.4165],[-5.1645,36.416],[-5.16441,36.41522],[-5.16502,36.41523],[-5.1631,36.41342],[-5.16015,36.41344],[-5.1579,36.4128],[-5.15985,36.41341],[-5.16035,36.41423],[-5.15958,36.41492],[-5.15896,36.41447],[-5.15773,36.41589],[-5.15521,36.41624],[-5.15505,36.41542],[-5.15676,36.41366],[-5.15722,36.41211],[-5.15847,36.41169],[-5.15636,36.41189],[-5.15633,36.41349],[-5.15451,36.41515],[-5.1537,36.41513],[-5.15282,36.4167],[-5.14828,36.42098],[-5.14023,36.42612],[-5.13468,36.42812],[-5.12943,36.42739],[-5.12612,36.42858],[-5.122,36.42849],[-5.11755,36.43044],[-5.11596,36.43063],[-5.11221,36.43258],[-5.11026,36.43287],[-5.1082,36.43377],[-5.1022,36.43868],[-5.09654,36.44074],[-5.08829,36.44717],[-5.0821,36.45026],[-5.07331,36.45211],[-5.06904,36.45195],[-5.06636,36.4501],[-5.05973,36.45002],[-5.0544,36.45237],[-5.05147,36.45223],[-5.03888,36.45966],[-5.03344,36.46127],[-5.02744,36.46163],[-5.0255,36.46067],[-5.02392,36.46058],[-5.01606,36.46183],[-5.01315,36.46104],[-5.01006,36.45908],[-5.008,36.45905],[-5.00494,36.46001],[-5.00581,36.46303],[-5.00845,36.46393],[-5.00895,36.46466],[-5.00917,36.46648],[-5.00804,36.47028],[-5.00884,36.47151],[-5.00931,36.47879],[-5.01345,36.48584],[-5.01291,36.48951],[-5.01322,36.49116],[-5.01467,36.49313],[-5.02001,36.49148],[-5.02931,36.48315],[-5.04111,36.47437],[-5.04792,36.47163],[-5.04873,36.47083],[-5.06142,36.46919],[-5.06581,36.47102],[-5.07485,36.47287],[-5.07815,36.48075],[-5.08762,36.49157],[-5.09966,36.50017],[-5.10566,36.50525],[-5.106,36.5068],[-5.10861,36.50987],[-5.10941,36.51302],[-5.11241,36.51442],[-5.11513,36.51721],[-5.11609,36.51915],[-5.11838,36.52116],[-5.1221,36.52378],[-5.12857,36.52455],[-5.13343,36.52638],[-5.13451,36.52715],[-5.13428,36.52817],[-5.13482,36.52882],[-5.14186,36.53042],[-5.14503,36.5336],[-5.14705,36.5347],[-5.15177,36.53578],[-5.15452,36.53476],[-5.16177,36.53514],[-5.1648,36.53032],[-5.16805,36.52949],[-5.17078,36.52796],[-5.17146,36.52663],[-5.17529,36.52462],[-5.17568,36.52269],[-5.17684,36.52118],[-5.18248,36.51864],[-5.18278,36.51495],[-5.18186,36.51015],[-5.18254,36.5079],[-5.18945,36.50489],[-5.1918,36.50007],[-5.19376,36.49845],[-5.1957,36.4941],[-5.19766,36.49187],[-5.19819,36.49044],[-5.20068,36.48855],[-5.20435,36.48727],[-5.20535,36.48587],[-5.20739,36.48536],[-5.20827,36.4843],[-5.20562,36.48129],[-5.20533,36.47964],[-5.20748,36.47559],[-5.20947,36.46845],[-5.2091,36.46653],[-5.20977,36.46409],[-5.20919,36.46288],[-5.21076,36.45902],[-5.21076,36.45376],[-5.21871,36.43158],[-5.21951,36.43083],[-5.21965,36.42678],[-5.21765,36.42126],[-5.21691,36.40954],[-5.21473,36.40376],[-5.2124,36.39943],[-5.20861,36.39473],[-5.20628,36.38613]]]}},{"type":"Feature","properties":{"name":"Fuengirola","ine":"29054","centroid":[-4.61388,36.55736]},"geometry":{"type":"Polygon","coordinates":[[[-4.59557,36.58757],[-4.59961,36.58731],[-4.60301,36.58788],[-4.60306,36.58917],[-4.60371,36.58965],[-4.6035,36.58816],[-4.60518,36.58631],[-4.60813,36.58539],[-4.60786,36.58252],[-4.60724,36.58174],[-4.61009,36.58157],[-4.60975,36.58047],[-4.61272,36.57824],[-4.61426,36.57569],[-4.61734,36.57261],[-4.61841,36.56924],[-4.62192,36.56659],[-4.62135,36.56505],[-4.62194,36.56316],[-4.62115,36.56243],[-4.62383,36.56098],[-4.62312,36.5598],[-4.62721,36.55868],[-4.62836,36.5523],[-4.63146,36.54797],[-4.63127,36.54604],[-4.63241,36.54391],[-4.6304,36.54221],[-4.6305,36.53961],[-4.6298,36.5369],[-4.63658,36.52867],[-4.63612,36.52812],[-4.63662,36.52581],[-4.63441,36.52421],[-4.62979,36.51921],[-4.62937,36.51902],[-4.6208,36.53775],[-4.61917,36.53888],[-4.61824,36.53792],[-4.61764,36.53857],[-4.61648,36.53856],[-4.61494,36.54078],[-4.61389,36.54323],[-4.61456,36.54311],[-4.61416,36.54291],[-4.61652,36.53887],[-4.61904,36.5398],[-4.61848,36.54077],[-4.6169,36.54037],[-4.6184,36.54092],[-4.61733,36.54279],[-4.6157,36.54209],[-4.61651,36.54265],[-4.61622,36.54325],[-4.61692,36.5434],[-4.61708,36.54495],[-4.61626,36.54613],[-4.61485,36.54562],[-4.61502,36.54527],[-4.61463,36.54571],[-4.61547,36.54619],[-4.61524,36.54771],[-4.60898,36.55735],[-4.60576,36.56112],[-4.60223,36.56365],[-4.59978,36.56375],[-4.59887,36.56267],[-4.59952,36.5636],[-4.5898,36.57101],[-4.59165,36.57237],[-4.59227,36.57392],[-4.59459,36.57469],[-4.59491,36.57528],[-4.59441,36.57802],[-4.59695,36.58393],[-4.59579,36.58597],[-4.59398,36.58712],[-4.59557,36.58757]]]}}]}